MEAN_MOTION;ECCENTRICITY;INCLINATION;RA_OF_ASC_NODE;ARG_OF_PERICENTER;MEAN_ANOMALY;BSTAR;MEAN_MOTION_DOT;MEAN_MOTION_DDOT;TYPE
0.99908936;0.0003418;13.6287;335.6273;320.9295;226.6947;0;-3.5E-6;0;Intelsat
0.99908287;0.000339;13.6272;335.614;320.9177;313.8877;0;-3.48E-6;0;Intelsat
0.9990788;0.0003371;13.6262;335.6059;320.9386;229.4893;0;-3.46E-6;0;Intelsat
0.99907397;0.0003358;13.6251;335.5961;321.046;205.0109;0;-3.44E-6;0;Intelsat
0.99907361;0.0003361;13.625;335.5953;321.0082;230.81;0;-3.44E-6;0;Intelsat
0.99906842;0.000336;13.6238;335.5848;321.0097;232.2241;0;-3.4E-6;0;Intelsat
0.99906354;0.0003276;13.6226;335.5751;321.7377;207.1026;0;-3.36E-6;0;Intelsat
0.99905788;0.0003266;13.6213;335.5644;321.9608;216.0821;0;-3.3E-6;0;Intelsat
0.99905313;0.0003253;13.6201;335.5541;322.2534;209.3657;0;-3.23E-6;0;Intelsat
0.99904827;0.0003241;13.6189;335.5437;322.5947;210.4282;0;-3.15E-6;0;Intelsat
0.99904346;0.0003265;13.6176;335.5333;322.7265;211.6731;0;-3.05E-6;0;Intelsat
0.99903835;0.0003241;13.6163;335.5229;323.1981;212.583;0;-2.95E-6;0;Intelsat
0.99903358;0.0003222;13.615;335.5124;323.7376;213.4306;0;-2.83E-6;0;Intelsat
0.99903043;0.0003238;13.6139;335.5038;323.8933;153.3051;0;-2.74E-6;0;Intelsat
0.99902821;0.0003222;13.6134;335.4994;324.3548;305.7289;0;-2.69E-6;0;Intelsat
0.99902484;0.0003213;13.6124;335.4916;324.7054;215.1924;0;-2.59E-6;0;Intelsat
0.99902051;0.0003188;13.611;335.4811;325.2713;215.9823;0;-2.47E-6;0;Intelsat
0.99901624;0.0003154;13.6097;335.4706;325.9002;216.7242;0;-2.35E-6;0;Intelsat
0.99901269;0.0003113;13.6084;335.4603;326.4183;217.5904;0;-2.22E-6;0;Intelsat
0.99900905;0.0003064;13.6071;335.4497;327.008;218.372;0;-2.09E-6;0;Intelsat
0.99900722;0.000304;13.6065;335.445;327.2955;25.6414;0;-2.03E-6;0;Intelsat
0.99900496;0.0003022;13.6055;335.4369;327.6839;309.1368;0;-1.94E-6;0;Intelsat
0.99900255;0.0002997;13.6045;335.4291;328.0461;220.0598;0;-1.84E-6;0;Intelsat
0.99899916;0.0002951;13.6031;335.4181;328.523;241.2325;0;-1.7E-6;0;Intelsat
0.99899897;0.0002957;13.6028;335.416;328.4005;315.3855;0;-1.67E-6;0;Intelsat
0.99899706;0.0002926;13.6019;335.4084;328.686;222.1531;0;-1.57E-6;0;Intelsat
0.99899425;0.0002867;13.6002;335.3959;329.0775;299.1037;0;-1.42E-6;0;Intelsat
0.99899425;0.0002867;13.6002;335.3959;329.0775;299.1037;0;-1.42E-6;0;Intelsat
0.99899049;0.0002812;13.5979;335.3773;329.1799;225.746;0;-1.2E-6;0;Intelsat
0.99898881;0.0002772;13.5965;335.3665;329.2603;242.7074;0;-1.07E-6;0;Intelsat
0.99898767;0.0002736;13.5954;335.3572;329.2782;202.6165;0;-9.8E-7;0;Intelsat
0.99898638;0.0002688;13.5941;335.3468;329.3403;203.9126;0;-8.7E-7;0;Intelsat
0.99898587;0.0002675;13.5935;335.3416;329.4169;24.513;0;-8.2E-7;0;Intelsat
0.99898532;0.0002656;13.5928;335.3364;329.2095;205.3981;0;-7.8E-7;0;Intelsat
0.99898457;0.0002613;13.5913;335.3236;329.0869;288.3907;0;-6.7E-7;0;Intelsat
0.99898434;0.0002607;13.5909;335.3208;329.2636;27.3686;0;-6.4E-7;0;Intelsat
0.99898421;0.0002587;13.5903;335.3155;329.0889;208.2421;0;-6.0E-7;0;Intelsat
0.99898396;0.0002567;13.589;335.3051;328.9548;209.7194;0;-5.1E-7;0;Intelsat
0.99898375;0.0002563;13.5884;335.2999;329.0262;30.3467;0;-4.7E-7;0;Intelsat
0.998984;0.0002531;13.5865;335.2844;328.8741;212.5362;0;-3.3E-7;0;Intelsat
0.99898459;0.000252;13.5852;335.2742;328.9601;213.7886;0;-2.3E-7;0;Intelsat
0.9989854;0.0002499;13.5839;335.2639;329.0947;215.0238;0;-1.2E-7;0;Intelsat
0.99898575;0.0002499;13.5833;335.2588;329.2812;35.5217;0;-7.0E-8;0;Intelsat
0.99898614;0.0002489;13.5826;335.2536;329.3225;216.1606;0;-1.0E-8;0;Intelsat
0.99898751;0.0002477;13.581;335.2405;329.7465;314.2216;0;1.3E-7;0;Intelsat
0.99898882;0.0002466;13.58;335.2329;330.0131;218.1832;0;2.1E-7;0;Intelsat
0.99898947;0.0002457;13.5793;335.2278;330.2902;38.5863;0;2.6E-7;0;Intelsat
0.99899033;0.0002443;13.5786;335.2226;330.4025;219.1623;0;3.2E-7;0;Intelsat
0.99899153;0.000244;13.578;335.2174;330.6612;39.5904;0;3.7E-7;0;Intelsat
0.9989923;0.0002437;13.5773;335.2123;330.8602;223.7696;0;4.2E-7;0;Intelsat
0.99899333;0.0002423;13.5767;335.2072;331.0923;40.5122;0;4.7E-7;0;Intelsat
0.99899459;0.000241;13.576;335.202;331.2795;220.9996;0;5.2E-7;0;Intelsat
0.99899689;0.0002382;13.5746;335.1917;331.7628;221.8767;0;6.1E-7;0;Intelsat
0.99899793;0.000236;13.574;335.1871;331.946;23.4718;0;6.5E-7;0;Intelsat
0.99899955;0.0002348;13.5733;335.1814;332.2497;222.777;0;7.0E-7;0;Intelsat
0.99900248;0.0002305;13.5718;335.1702;332.7717;252.8509;0;7.8E-7;0;Intelsat
0.99900511;0.0002276;13.5707;335.1614;333.1331;198.8432;0;8.5E-7;0;Intelsat
0.99900841;0.000223;13.5693;335.1511;333.5037;199.8557;0;9.2E-7;0;Intelsat
0.99901204;0.0002188;13.5679;335.1409;333.8293;200.8267;0;9.8E-7;0;Intelsat
0.99901571;0.0002141;13.5666;335.1306;334.1321;201.9008;0;1.04E-6;0;Intelsat
0.99901776;0.0002122;13.5659;335.1255;334.1496;22.5798;0;1.06E-6;0;Intelsat
0.99901951;0.0002104;13.5652;335.1203;334.3161;203.0778;0;1.09E-6;0;Intelsat
0.99902373;0.0002055;13.5639;335.11;334.4079;204.3632;0;1.13E-6;0;Intelsat
0.9990278;0.0002005;13.5625;335.0996;334.4261;205.7384;0;1.16E-6;0;Intelsat
0.99903207;0.0001971;13.5612;335.0893;334.4434;207.0923;0;1.18E-6;0;Intelsat
0.99903649;0.0001933;13.5599;335.0788;334.1879;208.7044;0;1.19E-6;0;Intelsat
0.99904559;0.0001856;13.5571;335.0575;333.4117;228.7056;0;1.17E-6;0;Intelsat
0.99905052;0.0001823;13.5558;335.0469;332.9182;235.4234;0;1.14E-6;0;Intelsat
0.99905266;0.0001815;13.5552;335.0422;332.9087;34.8396;0;1.13E-6;0;Intelsat
0.99905513;0.0001797;13.5545;335.0364;332.3811;235.4452;0;1.11E-6;0;Intelsat
0.99905719;0.0001784;13.554;335.0318;332.3196;36.7854;0;1.09E-6;0;Intelsat
0.99905946;0.0001768;13.5533;335.0268;331.8921;211.3986;0;1.07E-6;0;Intelsat
0.99906437;0.0001754;13.552;335.0165;331.416;212.6164;0;1.03E-6;0;Intelsat
0.99906638;0.0001751;13.5515;335.0118;331.2541;14.8857;0;1.01E-6;0;Intelsat
0.99906913;0.0001738;13.5508;335.0066;331.0235;195.8061;0;9.9E-7;0;Intelsat
0.99907417;0.0001726;13.5494;334.9955;330.602;223.3898;0;9.5E-7;0;Intelsat
0.99907607;0.0001728;13.5488;334.9911;330.5568;18.3633;0;9.4E-7;0;Intelsat
0.99907903;0.000172;13.5481;334.9852;330.4178;224.933;0;9.2E-7;0;Intelsat
0.9990833;0.0001714;13.5468;334.9755;330.3829;200.6337;0;9.0E-7;0;Intelsat
0.99908557;0.0001714;13.5462;334.9703;330.3838;21.302;0;8.8E-7;0;Intelsat
0.99908824;0.0001706;13.5455;334.9651;330.3633;205.7973;0;8.7E-7;0;Intelsat
0.9990928;0.0001695;13.5441;334.9548;330.4164;203.3691;0;8.4E-7;0;Intelsat
0.99909541;0.0001689;13.5434;334.9494;330.446;28.9058;0;8.3E-7;0;Intelsat
0.99909754;0.0001683;13.5427;334.9444;330.4884;204.697;0;8.1E-7;0;Intelsat
0.99910198;0.0001677;13.5413;334.934;330.9157;205.6842;0;7.7E-7;0;Intelsat
0.99910439;0.0001655;13.5406;334.9289;330.837;24.8962;0;7.6E-7;0;Intelsat
0.99910669;0.0001651;13.5399;334.9236;330.9816;207.0118;0;7.4E-7;0;Intelsat
0.99911147;0.0001628;13.5386;334.9132;331.2309;208.1887;0;6.9E-7;0;Intelsat
0.99911582;0.0001606;13.5372;334.9027;331.5774;209.1587;0;6.5E-7;0;Intelsat
0.99911795;0.0001588;13.5365;334.8976;331.6417;29.2795;0;6.2E-7;0;Intelsat
0.99912454;0.0001534;13.5345;334.8819;331.8425;211.8005;0;5.4E-7;0;Intelsat
0.99912891;0.0001493;13.5331;334.8715;331.8436;213.1988;0;4.8E-7;0;Intelsat
0.99913318;0.0001452;13.5318;334.8611;331.7805;214.6709;0;4.2E-7;0;Intelsat
0.99913699;0.0001411;13.5303;334.8506;331.6386;216.223;0;3.5E-7;0;Intelsat
0.99914114;0.0001367;13.5289;334.8402;331.2992;217.9429;0;2.8E-7;0;Intelsat
0.99914305;0.0001341;13.5283;334.835;330.8568;39.0979;0;2.5E-7;0;Intelsat
0.99914904;0.0001289;13.5262;334.8193;330.4034;221.6802;0;1.3E-7;0;Intelsat
0.99915222;0.000125;13.525;334.8096;329.5889;198.1401;0;5.0E-8;0;Intelsat
0.99915578;0.0001211;13.5236;334.7991;328.6041;200.5472;0;-5.0E-8;0;Intelsat
0.99915747;0.0001196;13.5229;334.7938;328.1695;21.7053;0;-1.0E-7;0;Intelsat
0.99915952;0.0001183;13.5222;334.7883;327.7302;210.9358;0;-1.5E-7;0;Intelsat
0.9991622;0.0001153;13.5209;334.778;326.3986;205.6025;0;-2.6E-7;0;Intelsat
0.99916548;0.0001142;13.5195;334.767;325.5365;221.8088;0;-3.8E-7;0;Intelsat
0.99916666;0.0001133;13.5189;334.7621;324.9817;29.172;0;-4.4E-7;0;Intelsat
0.99916783;0.0001131;13.5182;334.7568;324.5181;210.3223;0;-5.0E-7;0;Intelsat
0.99917045;0.000112;13.5168;334.7463;323.236;213.0311;0;-6.2E-7;0;Intelsat
0.99917152;0.0001122;13.5161;334.741;322.8049;34.1801;0;-6.9E-7;0;Intelsat
0.99917263;0.0001139;13.5155;334.7357;323.2586;214.4593;0;-7.5E-7;0;Intelsat
0.99917366;0.0001134;13.5148;334.7306;322.3978;31.9955;0;-8.0E-7;0;Intelsat
0.99917691;0.0001132;13.5128;334.7147;321.1283;219.428;0;-9.7E-7;0;Intelsat
0.99917851;0.0001135;13.5114;334.7042;320.4056;221.584;0;-1.07E-6;0;Intelsat
0.99917992;0.0001143;13.51;334.6938;320.3475;223.0759;0;-1.16E-6;0;Intelsat
0.99918114;0.0001159;13.5086;334.6834;320.7553;224.0845;0;-1.24E-6;0;Intelsat
0.9991818;0.0001159;13.508;334.6781;320.3701;45.1916;0;-1.28E-6;0;Intelsat
0.99918269;0.0001156;13.5066;334.6675;320.0323;46.9621;0;-1.36E-6;0;Intelsat
0.99918315;0.0001155;13.5059;334.6623;320.0573;227.6651;0;-1.4E-6;0;Intelsat
0.99918405;0.0001151;13.5045;334.6517;319.9984;229.1608;0;-1.47E-6;0;Intelsat
0.99918403;0.0001143;13.5038;334.6464;319.8146;50.0645;0;-1.51E-6;0;Intelsat
0.9991843;0.0001149;13.5032;334.6411;320.3471;230.2195;0;-1.54E-6;0;Intelsat
0.99918433;0.000113;13.5019;334.6313;319.2542;206.9869;0;-1.61E-6;0;Intelsat
0.99918465;0.0001105;13.5011;334.6252;318.222;54.4928;0;-1.65E-6;0;Intelsat
0.99918479;0.0001096;13.5004;334.6197;317.9544;235.4791;0;-1.68E-6;0;Intelsat
0.99918475;0.0001075;13.4991;334.6091;317.5469;237.3308;0;-1.75E-6;0;Intelsat
0.99918462;0.0001061;13.4987;334.605;317.209;21.3343;0;-1.78E-6;0;Intelsat
0.9991844;0.0001042;13.4973;334.5941;317.0331;34.2149;0;-1.85E-6;0;Intelsat
0.99918403;0.0001035;13.4966;334.5889;316.5668;215.4146;0;-1.88E-6;0;Intelsat
0.99918383;0.0001011;13.4952;334.5783;316.0338;217.3592;0;-1.94E-6;0;Intelsat
0.99918353;9.94E-5;13.4945;334.573;315.225;38.8951;0;-1.98E-6;0;Intelsat
0.99918212;9.56E-5;13.4924;334.5572;313.638;222.6398;0;-2.07E-6;0;Intelsat
